{
"type": "FeatureCollection",
"name": "iris",
"features": [
{ "type": "Feature", "properties": { "insee_com": 92036, "nom_com": "Gennevilliers", "iris": "0401", "code_iris": "920360401", "nom_iris": "Grésillons 1", "geo_point_2d": { "lon": 2.2967706965182817, "lat": 48.916590043461269 }, "id": "IRIS____0000000920360401" }, "geometry": { "type": "Polygon", "coordinates": [ [ [ 2.295835511253255, 48.915795292725619 ], [ 2.29560271868711, 48.917267889441327 ], [ 2.295816103586481, 48.917229574320132 ], [ 2.295984245318311, 48.917307902878619 ], [ 2.29658207769196, 48.918002081854809 ], [ 2.297974949867731, 48.916711652632927 ], [ 2.298386258850383, 48.916364231506655 ], [ 2.298487757556821, 48.916325256339064 ], [ 2.296208525220646, 48.915354125564747 ], [ 2.295835511253255, 48.915795292725619 ] ] ] } },
{ "type": "Feature", "properties": { "insee_com": 92036, "nom_com": "Gennevilliers", "iris": "0202", "code_iris": "920360202", "nom_iris": "Fossé de l'Aumône 2", "geo_point_2d": { "lon": 2.2883064877791219, "lat": 48.925795329264133 }, "id": "IRIS____0000000920360202" }, "geometry": { "type": "Polygon", "coordinates": [ [ [ 2.286279697417513, 48.922880137154166 ], [ 2.285621327003408, 48.924116352406116 ], [ 2.285808640296614, 48.923991566667027 ], [ 2.286612502092363, 48.924187007360118 ], [ 2.286897564559449, 48.924298419036866 ], [ 2.286873857614099, 48.924434971858766 ], [ 2.286203249239311, 48.925667518532649 ], [ 2.285824168803368, 48.927135616053178 ], [ 2.288313004584849, 48.927773637723206 ], [ 2.288370962359184, 48.927527573950954 ], [ 2.28960308464716, 48.927848739985393 ], [ 2.289895093150781, 48.927353158351487 ], [ 2.290375011272526, 48.927489097586673 ], [ 2.291644953341731, 48.925935427131115 ], [ 2.290208165356439, 48.92511305789548 ], [ 2.290069390793362, 48.925081659545718 ], [ 2.289660294388776, 48.924858006979065 ], [ 2.287111442396404, 48.92333024361885 ], [ 2.286279697417513, 48.922880137154166 ] ] ] } },
{ "type": "Feature", "properties": { "insee_com": 92036, "nom_com": "Gennevilliers", "iris": "0203", "code_iris": "920360203", "nom_iris": "Fossé de l'Aumône 3", "geo_point_2d": { "lon": 2.2904075174099834, "lat": 48.930183036333588 }, "id": "IRIS____0000000920360203" }, "geometry": { "type": "Polygon", "coordinates": [ [ [ 2.288313004584849, 48.927773637723206 ], [ 2.28793822252551, 48.929230073468851 ], [ 2.287664056459353, 48.931311216055306 ], [ 2.289909369384061, 48.93200710655973 ], [ 2.294137239957593, 48.933160697398407 ], [ 2.294218065632717, 48.932635985601458 ], [ 2.294782216564853, 48.931697745036963 ], [ 2.291671817569554, 48.93188174283133 ], [ 2.291565350731466, 48.931882012808828 ], [ 2.291506034187139, 48.931827704431235 ], [ 2.291787050236906, 48.930034370449306 ], [ 2.29151843431612, 48.929714431562601 ], [ 2.291478319244034, 48.929553220196908 ], [ 2.29156510048789, 48.929394557623532 ], [ 2.291937385584435, 48.929117076361813 ], [ 2.292083431389133, 48.928113423357033 ], [ 2.291956372982931, 48.928022742847844 ], [ 2.291934311172819, 48.927938977729688 ], [ 2.290375011272526, 48.927489097586673 ], [ 2.289895093150781, 48.927353158351487 ], [ 2.28960308464716, 48.927848739985393 ], [ 2.288370962359184, 48.927527573950954 ], [ 2.288313004584849, 48.927773637723206 ] ] ] } },
{ "type": "Feature", "properties": { "insee_com": 92036, "nom_com": "Gennevilliers", "iris": "0504", "code_iris": "920360504", "nom_iris": "Village Chandon 4", "geo_point_2d": { "lon": 2.2978005826068264, "lat": 48.931939720156684 }, "id": "IRIS____0000000920360504" }, "geometry": { "type": "Polygon", "coordinates": [ [ [ 2.294782216564853, 48.931697745036963 ], [ 2.294218065632717, 48.932635985601458 ], [ 2.294137239957593, 48.933160697398407 ], [ 2.295518774270195, 48.933447607394008 ], [ 2.296496394829791, 48.933525293530217 ], [ 2.299596724699078, 48.933486796983829 ], [ 2.299741013945687, 48.933414797399251 ], [ 2.301597889505213, 48.93327275285376 ], [ 2.301725858631716, 48.933297779438483 ], [ 2.301713743106169, 48.933183498616728 ], [ 2.301804557486464, 48.933027550688045 ], [ 2.301626984198775, 48.93303730757107 ], [ 2.301400010821284, 48.932964940542064 ], [ 2.301203028488347, 48.932285724669342 ], [ 2.301108349412616, 48.932119702456511 ], [ 2.301020666209801, 48.93143302941963 ], [ 2.301189272983409, 48.930769433707148 ], [ 2.299775224154566, 48.930670350929702 ], [ 2.298685588624008, 48.930502106007481 ], [ 2.297369337978012, 48.929832513953365 ], [ 2.296531752498546, 48.930002063620613 ], [ 2.295066690002319, 48.930446699881465 ], [ 2.294943214520259, 48.931198684124311 ], [ 2.294782216564853, 48.931697745036963 ] ] ] } },
{ "type": "Feature", "properties": { "insee_com": 92036, "nom_com": "Gennevilliers", "iris": "0503", "code_iris": "920360503", "nom_iris": "Village Chandon 3", "geo_point_2d": { "lon": 2.3025801669674042, "lat": 48.932143774592546 }, "id": "IRIS____0000000920360503" }, "geometry": { "type": "Polygon", "coordinates": [ [ [ 2.294137239957593, 48.933160697398407 ], [ 2.293912664009246, 48.933716936635477 ], [ 2.293109885061925, 48.935136684503263 ], [ 2.292514684685819, 48.936144876081904 ], [ 2.292072308312796, 48.936754681430827 ], [ 2.300478620859456, 48.938450638309988 ], [ 2.300701172428001, 48.938447440518885 ], [ 2.302625158414675, 48.938811171431801 ], [ 2.304090942636056, 48.93893749755221 ], [ 2.304006502179248, 48.939535033735879 ], [ 2.303898525941255, 48.939850955928996 ], [ 2.303741520427018, 48.939750223101498 ], [ 2.303160146330902, 48.939737851703583 ], [ 2.302364212686959, 48.939743113908229 ], [ 2.30233574258982, 48.93983017910076 ], [ 2.302849583891924, 48.941927607523759 ], [ 2.302925393442637, 48.942484706176224 ], [ 2.302978233999742, 48.942514689865469 ], [ 2.303469150717996, 48.941536422829529 ], [ 2.303551824743226, 48.941479348902647 ], [ 2.303984769307671, 48.940649124408594 ], [ 2.304399347452979, 48.93976213609826 ], [ 2.304835911593457, 48.939271859225833 ], [ 2.309575335608015, 48.92951766054933 ], [ 2.309314279557776, 48.929648352656699 ], [ 2.309214565834817, 48.929551553301664 ], [ 2.309105744552248, 48.929523947101757 ], [ 2.306361227147331, 48.922445899882781 ], [ 2.305811508914093, 48.921814104221873 ], [ 2.304492175726325, 48.924447701027532 ], [ 2.300025484537558, 48.924445972549883 ], [ 2.300018393405928, 48.92558174723009 ], [ 2.300101394436062, 48.925600218051599 ], [ 2.300152440343105, 48.925660769269427 ], [ 2.300135230067587, 48.925722720424034 ], [ 2.30002551430684, 48.925762548049775 ], [ 2.300035848443777, 48.92590739563223 ], [ 2.300440050527726, 48.928224550174392 ], [ 2.300417800907173, 48.928458237598285 ], [ 2.300605124450601, 48.928838834398739 ], [ 2.300835805694476, 48.929547926932379 ], [ 2.300594328361346, 48.929743463721721 ], [ 2.301368480860228, 48.930637382864418 ], [ 2.301189272983409, 48.930769433707148 ], [ 2.301020666209801, 48.93143302941963 ], [ 2.301108349412616, 48.932119702456511 ], [ 2.301203028488347, 48.932285724669342 ], [ 2.301400010821284, 48.932964940542064 ], [ 2.301626984198775, 48.93303730757107 ], [ 2.301804557486464, 48.933027550688045 ], [ 2.301713743106169, 48.933183498616728 ], [ 2.301725858631716, 48.933297779438483 ], [ 2.301597889505213, 48.93327275285376 ], [ 2.299741013945687, 48.933414797399251 ], [ 2.299596724699078, 48.933486796983829 ], [ 2.296496394829791, 48.933525293530217 ], [ 2.295518774270195, 48.933447607394008 ], [ 2.294137239957593, 48.933160697398407 ] ] ] } },
{ "type": "Feature", "properties": { "insee_com": 92036, "nom_com": "Gennevilliers", "iris": "0102", "code_iris": "920360102", "nom_iris": "Luth 2", "geo_point_2d": { "lon": 2.2852224683752471, "lat": 48.932694471581094 }, "id": "IRIS____0000000920360102" }, "geometry": { "type": "Polygon", "coordinates": [ [ [ 2.289194879378071, 48.933552355916454 ], [ 2.289205780485676, 48.933054211485356 ], [ 2.284619358643559, 48.93297026641099 ], [ 2.284733387963239, 48.931030266426163 ], [ 2.284279824004068, 48.930763165193518 ], [ 2.283516367205856, 48.931591351939979 ], [ 2.28315378744193, 48.932051421945211 ], [ 2.283284270004929, 48.932388539023002 ], [ 2.28322374245642, 48.933413373700823 ], [ 2.283492021733713, 48.933458144077157 ], [ 2.289194879378071, 48.933552355916454 ] ] ] } },
{ "type": "Feature", "properties": { "insee_com": 92036, "nom_com": "Gennevilliers", "iris": "0303", "code_iris": "920360303", "nom_iris": "Agnettes 3", "geo_point_2d": { "lon": 2.2915861023470288, "lat": 48.923953446778235 }, "id": "IRIS____0000000920360303" }, "geometry": { "type": "Polygon", "coordinates": [ [ [ 2.294658320249343, 48.92674188825012 ], [ 2.294446456913684, 48.925457340146643 ], [ 2.294816599835553, 48.922515205768285 ], [ 2.293969258633287, 48.922506618659334 ], [ 2.293832265978726, 48.922545380687566 ], [ 2.293704407530799, 48.922715494605363 ], [ 2.292600874220766, 48.922278218484763 ], [ 2.292056031848442, 48.92200251164946 ], [ 2.291972604782061, 48.921915685558396 ], [ 2.291260522576174, 48.921896187472825 ], [ 2.291220240478634, 48.921948108803079 ], [ 2.291129935710681, 48.921965560648992 ], [ 2.291028513936967, 48.921897512803547 ], [ 2.289082667294182, 48.921886882649027 ], [ 2.288803501974188, 48.921843857976619 ], [ 2.28874569968962, 48.921879487027233 ], [ 2.288636622568351, 48.921872544357726 ], [ 2.287111442396404, 48.92333024361885 ], [ 2.289660294388776, 48.924858006979065 ], [ 2.290069390793362, 48.925081659545718 ], [ 2.290208165356439, 48.92511305789548 ], [ 2.291644953341731, 48.925935427131115 ], [ 2.292479180505151, 48.926410689571483 ], [ 2.292838994142928, 48.926546809165295 ], [ 2.293066159754078, 48.926602107514448 ], [ 2.294517442420645, 48.926764440717413 ], [ 2.294658320249343, 48.92674188825012 ] ] ] } },
{ "type": "Feature", "properties": { "insee_com": 92036, "nom_com": "Gennevilliers", "iris": "0204", "code_iris": "920360204", "nom_iris": "Fossé de l'Aumône 4", "geo_point_2d": { "lon": 2.2931369042823602, "lat": 48.929061857024067 }, "id": "IRIS____0000000920360204" }, "geometry": { "type": "Polygon", "coordinates": [ [ [ 2.295066690002319, 48.930446699881465 ], [ 2.294949224714229, 48.928237335218981 ], [ 2.294658320249343, 48.92674188825012 ], [ 2.294517442420645, 48.926764440717413 ], [ 2.293066159754078, 48.926602107514448 ], [ 2.292838994142928, 48.926546809165295 ], [ 2.292479180505151, 48.926410689571483 ], [ 2.291644953341731, 48.925935427131115 ], [ 2.290375011272526, 48.927489097586673 ], [ 2.291934311172819, 48.927938977729688 ], [ 2.291956372982931, 48.928022742847844 ], [ 2.292083431389133, 48.928113423357033 ], [ 2.291937385584435, 48.929117076361813 ], [ 2.29156510048789, 48.929394557623532 ], [ 2.291478319244034, 48.929553220196908 ], [ 2.29151843431612, 48.929714431562601 ], [ 2.291787050236906, 48.930034370449306 ], [ 2.291506034187139, 48.931827704431235 ], [ 2.291565350731466, 48.931882012808828 ], [ 2.291671817569554, 48.93188174283133 ], [ 2.294782216564853, 48.931697745036963 ], [ 2.294943214520259, 48.931198684124311 ], [ 2.295066690002319, 48.930446699881465 ] ] ] } },
{ "type": "Feature", "properties": { "insee_com": 92036, "nom_com": "Gennevilliers", "iris": "0104", "code_iris": "920360104", "nom_iris": "Luth 4", "geo_point_2d": { "lon": 2.2902935069756483, "lat": 48.932897132202619 }, "id": "IRIS____0000000920360104" }, "geometry": { "type": "Polygon", "coordinates": [ [ [ 2.28437033578382, 48.930235818263867 ], [ 2.284073216515227, 48.930601856211993 ], [ 2.284279824004068, 48.930763165193518 ], [ 2.284733387963239, 48.931030266426163 ], [ 2.28527313635453, 48.931084746599836 ], [ 2.285864841008068, 48.931232161490819 ], [ 2.286297542735987, 48.931428987191488 ], [ 2.287085405856546, 48.931904008413142 ], [ 2.287818558531595, 48.932188947730204 ], [ 2.288451559445648, 48.932312314008968 ], [ 2.289280825478193, 48.932356803732006 ], [ 2.289228533648426, 48.932487790695838 ], [ 2.289205780485676, 48.933054211485356 ], [ 2.289194879378071, 48.933552355916454 ], [ 2.289177458896763, 48.933828335870771 ], [ 2.291837925786277, 48.934418734235905 ], [ 2.292133203625616, 48.934586847828015 ], [ 2.2921644324424, 48.934899986191738 ], [ 2.293109885061925, 48.935136684503263 ], [ 2.293912664009246, 48.933716936635477 ], [ 2.294137239957593, 48.933160697398407 ], [ 2.289909369384061, 48.93200710655973 ], [ 2.287664056459353, 48.931311216055306 ], [ 2.285148030192797, 48.930554314554485 ], [ 2.284610513122723, 48.93033797357262 ], [ 2.284595768191283, 48.930219178298231 ], [ 2.284507788568412, 48.930165594501879 ], [ 2.28437033578382, 48.930235818263867 ] ] ] } },
{ "type": "Feature", "properties": { "insee_com": 92036, "nom_com": "Gennevilliers", "iris": "0301", "code_iris": "920360301", "nom_iris": "Agnettes 1", "geo_point_2d": { "lon": 2.2902118577273409, "lat": 48.921307136389657 }, "id": "IRIS____0000000920360301" }, "geometry": { "type": "Polygon", "coordinates": [ [ [ 2.290122107097018, 48.919017068213293 ], [ 2.286807724501577, 48.921792425794784 ], [ 2.285948093670566, 48.922680314718932 ], [ 2.286279697417513, 48.922880137154166 ], [ 2.287111442396404, 48.92333024361885 ], [ 2.288636622568351, 48.921872544357726 ], [ 2.28874569968962, 48.921879487027233 ], [ 2.288803501974188, 48.921843857976619 ], [ 2.289082667294182, 48.921886882649027 ], [ 2.291028513936967, 48.921897512803547 ], [ 2.291129935710681, 48.921965560648992 ], [ 2.291220240478634, 48.921948108803079 ], [ 2.291260522576174, 48.921896187472825 ], [ 2.291972604782061, 48.921915685558396 ], [ 2.292056031848442, 48.92200251164946 ], [ 2.292600874220766, 48.922278218484763 ], [ 2.293704407530799, 48.922715494605363 ], [ 2.293832265978726, 48.922545380687566 ], [ 2.293969258633287, 48.922506618659334 ], [ 2.294816599835553, 48.922515205768285 ], [ 2.294973012477776, 48.921949565333087 ], [ 2.294832428043757, 48.921951435945545 ], [ 2.294603221475761, 48.921947388870215 ], [ 2.290966240837299, 48.920058066761428 ], [ 2.291395447057828, 48.91970448104599 ], [ 2.290122107097018, 48.919017068213293 ] ] ] } },
{ "type": "Feature", "properties": { "insee_com": 92036, "nom_com": "Gennevilliers", "iris": "0101", "code_iris": "920360101", "nom_iris": "Luth 1", "geo_point_2d": { "lon": 2.2871439378145708, "lat": 48.934640025006956 }, "id": "IRIS____0000000920360101" }, "geometry": { "type": "Polygon", "coordinates": [ [ [ 2.284073216515227, 48.930601856211993 ], [ 2.283344952679479, 48.931748603158553 ], [ 2.282864498243304, 48.932046094015647 ], [ 2.280753338052135, 48.934487619151682 ], [ 2.292072308312796, 48.936754681430827 ], [ 2.292514684685819, 48.936144876081904 ], [ 2.293109885061925, 48.935136684503263 ], [ 2.2921644324424, 48.934899986191738 ], [ 2.292133203625616, 48.934586847828015 ], [ 2.291837925786277, 48.934418734235905 ], [ 2.289177458896763, 48.933828335870771 ], [ 2.289194879378071, 48.933552355916454 ], [ 2.283492021733713, 48.933458144077157 ], [ 2.28322374245642, 48.933413373700823 ], [ 2.283284270004929, 48.932388539023002 ], [ 2.28315378744193, 48.932051421945211 ], [ 2.283516367205856, 48.931591351939979 ], [ 2.284279824004068, 48.930763165193518 ], [ 2.284073216515227, 48.930601856211993 ] ] ] } },
{ "type": "Feature", "properties": { "insee_com": 92036, "nom_com": "Gennevilliers", "iris": "0402", "code_iris": "920360402", "nom_iris": "Grésillons 2", "geo_point_2d": { "lon": 2.2985326784282702, "lat": 48.916036832535518 }, "id": "IRIS____0000000920360402" }, "geometry": { "type": "Polygon", "coordinates": [ [ [ 2.301733873370451, 48.915107671735875 ], [ 2.29893087914253, 48.913717157486865 ], [ 2.296383495981599, 48.912706686479751 ], [ 2.296277824738215, 48.9127519306262 ], [ 2.295835511253255, 48.915795292725619 ], [ 2.296208525220646, 48.915354125564747 ], [ 2.298487757556821, 48.916325256339064 ], [ 2.298386258850383, 48.916364231506655 ], [ 2.297974949867731, 48.916711652632927 ], [ 2.29658207769196, 48.918002081854809 ], [ 2.297962333561141, 48.919568674070703 ], [ 2.298089727557972, 48.919532548960774 ], [ 2.298199898709621, 48.919559274176571 ], [ 2.298375885884847, 48.919461381347901 ], [ 2.298570259908895, 48.919416654894192 ], [ 2.300604746073889, 48.918206392473124 ], [ 2.300705861061568, 48.918094569471862 ], [ 2.301069081161677, 48.917872761770596 ], [ 2.300950774366084, 48.917740772862764 ], [ 2.299649683784422, 48.91698045472873 ], [ 2.301733873370451, 48.915107671735875 ] ] ] } },
{ "type": "Feature", "properties": { "insee_com": 92036, "nom_com": "Gennevilliers", "iris": "0403", "code_iris": "920360403", "nom_iris": "Grésillons 3", "geo_point_2d": { "lon": 2.3034992564092858, "lat": 48.917355218577022 }, "id": "IRIS____0000000920360403" }, "geometry": { "type": "Polygon", "coordinates": [ [ [ 2.307501181611909, 48.917284195446378 ], [ 2.301733873370451, 48.915107671735875 ], [ 2.299649683784422, 48.91698045472873 ], [ 2.300950774366084, 48.917740772862764 ], [ 2.301069081161677, 48.917872761770596 ], [ 2.301206937554856, 48.917869968681948 ], [ 2.301331910355845, 48.917912065601101 ], [ 2.301971763583156, 48.918226055677358 ], [ 2.303795397429142, 48.919405762921485 ], [ 2.304215408967435, 48.919936993627509 ], [ 2.305589942716385, 48.918885587550022 ], [ 2.307501181611909, 48.917284195446378 ] ] ] } },
{ "type": "Feature", "properties": { "insee_com": 92036, "nom_com": "Gennevilliers", "iris": "0201", "code_iris": "920360201", "nom_iris": "Fossé de l'Aumône 1", "geo_point_2d": { "lon": 2.2860615231023624, "lat": 48.928158485296471 }, "id": "IRIS____0000000920360201" }, "geometry": { "type": "Polygon", "coordinates": [ [ [ 2.285621327003408, 48.924116352406116 ], [ 2.284974151282699, 48.925330147083621 ], [ 2.284503377080231, 48.926119621292266 ], [ 2.28437033578382, 48.930235818263867 ], [ 2.284507788568412, 48.930165594501879 ], [ 2.284595768191283, 48.930219178298231 ], [ 2.284610513122723, 48.93033797357262 ], [ 2.285148030192797, 48.930554314554485 ], [ 2.287664056459353, 48.931311216055306 ], [ 2.28793822252551, 48.929230073468851 ], [ 2.288313004584849, 48.927773637723206 ], [ 2.285824168803368, 48.927135616053178 ], [ 2.286203249239311, 48.925667518532649 ], [ 2.286873857614099, 48.924434971858766 ], [ 2.286897564559449, 48.924298419036866 ], [ 2.286612502092363, 48.924187007360118 ], [ 2.285808640296614, 48.923991566667027 ], [ 2.285621327003408, 48.924116352406116 ] ] ] } },
{ "type": "Feature", "properties": { "insee_com": 92036, "nom_com": "Gennevilliers", "iris": "0302", "code_iris": "920360302", "nom_iris": "Agnettes 2", "geo_point_2d": { "lon": 2.2929673085077007, "lat": 48.919855533334683 }, "id": "IRIS____0000000920360302" }, "geometry": { "type": "Polygon", "coordinates": [ [ [ 2.295247543757927, 48.919916954683472 ], [ 2.291897562466867, 48.917903441527372 ], [ 2.290122107097018, 48.919017068213293 ], [ 2.291395447057828, 48.91970448104599 ], [ 2.290966240837299, 48.920058066761428 ], [ 2.294603221475761, 48.921947388870215 ], [ 2.294832428043757, 48.921951435945545 ], [ 2.294969833109335, 48.920975600807957 ], [ 2.295066250495241, 48.92070817548553 ], [ 2.295143637500631, 48.920636686425311 ], [ 2.295247543757927, 48.919916954683472 ] ] ] } },
{ "type": "Feature", "properties": { "insee_com": 92036, "nom_com": "Gennevilliers", "iris": "0103", "code_iris": "920360103", "nom_iris": "Luth 3", "geo_point_2d": { "lon": 2.286478533528582, "lat": 48.932290442403897 }, "id": "IRIS____0000000920360103" }, "geometry": { "type": "Polygon", "coordinates": [ [ [ 2.284733387963239, 48.931030266426163 ], [ 2.284619358643559, 48.93297026641099 ], [ 2.289205780485676, 48.933054211485356 ], [ 2.289228533648426, 48.932487790695838 ], [ 2.289280825478193, 48.932356803732006 ], [ 2.288451559445648, 48.932312314008968 ], [ 2.287818558531595, 48.932188947730204 ], [ 2.287085405856546, 48.931904008413142 ], [ 2.286297542735987, 48.931428987191488 ], [ 2.285864841008068, 48.931232161490819 ], [ 2.28527313635453, 48.931084746599836 ], [ 2.284733387963239, 48.931030266426163 ] ] ] } },
{ "type": "Feature", "properties": { "insee_com": 92036, "nom_com": "Gennevilliers", "iris": "0404", "code_iris": "920360404", "nom_iris": "Grésillons 4", "geo_point_2d": { "lon": 2.2926067044110994, "lat": 48.93785967558749 }, "id": "IRIS____0000000920360404" }, "geometry": { "type": "Polygon", "coordinates": [ [ [ 2.255266935266652, 48.940072155828794 ], [ 2.255577888559619, 48.940188297567268 ], [ 2.257912093179849, 48.941923115789322 ], [ 2.259819600826973, 48.942953805273547 ], [ 2.261775372553522, 48.943763535238709 ], [ 2.263156209346401, 48.944203689482833 ], [ 2.265175295830574, 48.944984075121504 ], [ 2.266708875986224, 48.945730881181397 ], [ 2.26861305828537, 48.946534784908039 ], [ 2.270674098839709, 48.94706173285104 ], [ 2.273587534255475, 48.947658561394945 ], [ 2.279002438935722, 48.949036577686819 ], [ 2.281489768144255, 48.949754749316426 ], [ 2.285459369903872, 48.950418762461418 ], [ 2.29080533850887, 48.951088095014903 ], [ 2.292456608478497, 48.950751629057407 ], [ 2.293398984828159, 48.950633086404018 ], [ 2.295639688757196, 48.950526667673003 ], [ 2.299188800067739, 48.950494409286776 ], [ 2.303113139035645, 48.949971422772052 ], [ 2.306364089110817, 48.949154845848852 ], [ 2.311668101190335, 48.947948907661143 ], [ 2.309312234012915, 48.941522571883965 ], [ 2.309984035138957, 48.941306116074621 ], [ 2.309202818691266, 48.940304308098305 ], [ 2.312594879774392, 48.939189808813381 ], [ 2.314602717459937, 48.938067305641482 ], [ 2.317431737675187, 48.93729387500796 ], [ 2.318101651733853, 48.937006318832111 ], [ 2.319383859511885, 48.936034281539001 ], [ 2.321104898463506, 48.934275139836245 ], [ 2.322158123023634, 48.932849430257548 ], [ 2.321101172462344, 48.931318247945292 ], [ 2.320856859820676, 48.931213444989297 ], [ 2.318357997649843, 48.927548121287664 ], [ 2.325449490436194, 48.924914641079909 ], [ 2.328449672778644, 48.922759687332793 ], [ 2.325953226208402, 48.920688969861871 ], [ 2.323866358310079, 48.919772514051388 ], [ 2.322706079899198, 48.919172421090011 ], [ 2.322015312685549, 48.918671199646631 ], [ 2.320378226193076, 48.919581911532461 ], [ 2.317763613985979, 48.920835967683587 ], [ 2.31494876079394, 48.920083378069663 ], [ 2.311530679187229, 48.918930663561667 ], [ 2.310111238287199, 48.91843777359653 ], [ 2.308367392475484, 48.917612049799139 ], [ 2.307501181611909, 48.917284195446378 ], [ 2.305589942716385, 48.918885587550022 ], [ 2.304215408967435, 48.919936993627509 ], [ 2.305811508914093, 48.921814104221873 ], [ 2.306361227147331, 48.922445899882781 ], [ 2.309105744552248, 48.929523947101757 ], [ 2.309214565834817, 48.929551553301664 ], [ 2.309314279557776, 48.929648352656699 ], [ 2.309575335608015, 48.92951766054933 ], [ 2.304835911593457, 48.939271859225833 ], [ 2.304399347452979, 48.93976213609826 ], [ 2.303984769307671, 48.940649124408594 ], [ 2.303551824743226, 48.941479348902647 ], [ 2.303469150717996, 48.941536422829529 ], [ 2.302978233999742, 48.942514689865469 ], [ 2.302925393442637, 48.942484706176224 ], [ 2.302849583891924, 48.941927607523759 ], [ 2.30233574258982, 48.93983017910076 ], [ 2.302364212686959, 48.939743113908229 ], [ 2.303160146330902, 48.939737851703583 ], [ 2.303741520427018, 48.939750223101498 ], [ 2.303898525941255, 48.939850955928996 ], [ 2.304006502179248, 48.939535033735879 ], [ 2.304090942636056, 48.93893749755221 ], [ 2.302625158414675, 48.938811171431801 ], [ 2.300701172428001, 48.938447440518885 ], [ 2.300478620859456, 48.938450638309988 ], [ 2.292072308312796, 48.936754681430827 ], [ 2.280753338052135, 48.934487619151682 ], [ 2.282864498243304, 48.932046094015647 ], [ 2.281031021167355, 48.933062104394722 ], [ 2.277631445475213, 48.9335173890235 ], [ 2.276254870592082, 48.933567538091417 ], [ 2.27566003640524, 48.933546857837769 ], [ 2.274628182564356, 48.933249245136217 ], [ 2.27438769555914, 48.933267573848141 ], [ 2.273746755457262, 48.933421068323099 ], [ 2.273039347010705, 48.933837649854247 ], [ 2.272394395929396, 48.934081941599793 ], [ 2.271950251060562, 48.934119712635479 ], [ 2.271260253882089, 48.933876306420579 ], [ 2.267957719695233, 48.934506370529988 ], [ 2.264594456490384, 48.934984889498324 ], [ 2.262484280602981, 48.9354584416728 ], [ 2.262249606338901, 48.93487335447827 ], [ 2.259163566388732, 48.936775213250755 ], [ 2.258169560977623, 48.93755864552994 ], [ 2.258088105752326, 48.937622890520743 ], [ 2.256865443468325, 48.937496609146969 ], [ 2.255319191118847, 48.936898873315492 ], [ 2.254348447706738, 48.936626646583825 ], [ 2.253861525939017, 48.936313359354735 ], [ 2.253460967270328, 48.936165179127144 ], [ 2.251020714721895, 48.935851388097625 ], [ 2.249471422827256, 48.934904628926603 ], [ 2.248401261950098, 48.933865528673529 ], [ 2.247561180577504, 48.93673980665784 ], [ 2.250996041951316, 48.93832339655048 ], [ 2.255266935266652, 48.940072155828794 ] ] ] } },
{ "type": "Feature", "properties": { "insee_com": 92036, "nom_com": "Gennevilliers", "iris": "0501", "code_iris": "920360501", "nom_iris": "Village Chandon 1", "geo_point_2d": { "lon": 2.3002513833096332, "lat": 48.921386969287312 }, "id": "IRIS____0000000920360501" }, "geometry": { "type": "Polygon", "coordinates": [ [ [ 2.29560271868711, 48.917267889441327 ], [ 2.295247543757927, 48.919916954683472 ], [ 2.295143637500631, 48.920636686425311 ], [ 2.295066250495241, 48.92070817548553 ], [ 2.294969833109335, 48.920975600807957 ], [ 2.294832428043757, 48.921951435945545 ], [ 2.294973012477776, 48.921949565333087 ], [ 2.295264902794594, 48.921960275524981 ], [ 2.295503978794438, 48.922041719431299 ], [ 2.296266141859112, 48.922697293452856 ], [ 2.297152363091134, 48.923262760388567 ], [ 2.297638578751894, 48.923739543402981 ], [ 2.297623283169379, 48.924367165982609 ], [ 2.300026065197573, 48.924402809510703 ], [ 2.300025484537558, 48.924445972549883 ], [ 2.304492175726325, 48.924447701027532 ], [ 2.305811508914093, 48.921814104221873 ], [ 2.304215408967435, 48.919936993627509 ], [ 2.303795397429142, 48.919405762921485 ], [ 2.301971763583156, 48.918226055677358 ], [ 2.301331910355845, 48.917912065601101 ], [ 2.301206937554856, 48.917869968681948 ], [ 2.301069081161677, 48.917872761770596 ], [ 2.300705861061568, 48.918094569471862 ], [ 2.300604746073889, 48.918206392473124 ], [ 2.298570259908895, 48.919416654894192 ], [ 2.298375885884847, 48.919461381347901 ], [ 2.298199898709621, 48.919559274176571 ], [ 2.298089727557972, 48.919532548960774 ], [ 2.297962333561141, 48.919568674070703 ], [ 2.29658207769196, 48.918002081854809 ], [ 2.295984245318311, 48.917307902878619 ], [ 2.295816103586481, 48.917229574320132 ], [ 2.29560271868711, 48.917267889441327 ] ] ] } },
{ "type": "Feature", "properties": { "insee_com": 92036, "nom_com": "Gennevilliers", "iris": "0502", "code_iris": "920360502", "nom_iris": "Village Chandon 2", "geo_point_2d": { "lon": 2.2974113556237525, "lat": 48.926883666520403 }, "id": "IRIS____0000000920360502" }, "geometry": { "type": "Polygon", "coordinates": [ [ [ 2.294816599835553, 48.922515205768285 ], [ 2.294446456913684, 48.925457340146643 ], [ 2.294658320249343, 48.92674188825012 ], [ 2.294949224714229, 48.928237335218981 ], [ 2.295066690002319, 48.930446699881465 ], [ 2.296531752498546, 48.930002063620613 ], [ 2.297369337978012, 48.929832513953365 ], [ 2.298685588624008, 48.930502106007481 ], [ 2.299775224154566, 48.930670350929702 ], [ 2.301189272983409, 48.930769433707148 ], [ 2.301368480860228, 48.930637382864418 ], [ 2.300594328361346, 48.929743463721721 ], [ 2.300835805694476, 48.929547926932379 ], [ 2.300605124450601, 48.928838834398739 ], [ 2.300417800907173, 48.928458237598285 ], [ 2.300440050527726, 48.928224550174392 ], [ 2.300035848443777, 48.92590739563223 ], [ 2.30002551430684, 48.925762548049775 ], [ 2.300135230067587, 48.925722720424034 ], [ 2.300152440343105, 48.925660769269427 ], [ 2.300101394436062, 48.925600218051599 ], [ 2.300018393405928, 48.92558174723009 ], [ 2.300025484537558, 48.924445972549883 ], [ 2.300026065197573, 48.924402809510703 ], [ 2.297623283169379, 48.924367165982609 ], [ 2.297638578751894, 48.923739543402981 ], [ 2.297152363091134, 48.923262760388567 ], [ 2.296266141859112, 48.922697293452856 ], [ 2.295503978794438, 48.922041719431299 ], [ 2.295264902794594, 48.921960275524981 ], [ 2.294973012477776, 48.921949565333087 ], [ 2.294816599835553, 48.922515205768285 ] ] ] } }
]
}
